OBJECT_NAME,OBJECT_ID,EPOCH,MEAN_MOTION,ECCENTRICITY,INCLINATION,RA_OF_ASC_NODE,ARG_OF_PERICENTER,MEAN_ANOMALY,EPHEMERIS_TYPE,CLASSIFICATION_TYPE,NORAD_CAT_ID,ELEMENT_SET_NO,REV_AT_EPOCH,BSTAR,MEAN_MOTION_DOT,MEAN_MOTION_DDOT
COSMOS 2532 (RODNIK-S 18),2018-097C,2026-07-19T07:17:00.931200,12.42910227,.00178271,82.5112,202.1891,351.8812,8.1976,0,U,43753,999,34626,-.1013786E-2,-.131E-5,0
MINXSS-2,2018-099A,2026-07-19T03:41:53.057184,15.49007241,.00088308,97.4519,277.4240,148.4623,211.7159,0,U,43758,999,41907,.43719734E-3,.2364E-3,0
SIRION PATHFINDER-2,2018-099B,2026-07-19T02:09:27.543168,15.14795023,.00088814,97.4232,248.3912,177.9232,182.2039,0,U,43759,999,41745,.1358178E-3,.2458E-4,0
AISTECHSAT 2,2018-099L,2026-07-19T02:38:06.369216,15.15735511,.00050549,97.4273,247.4478,167.8563,192.2792,0,U,43768,999,41711,.12794559E-3,.2374E-4,0
FOX-1CLIFF (AO-95),2018-099N,2026-07-19T02:54:15.402240,15.27321019,.00075525,97.4363,260.2606,223.6290,136.4353,0,U,43770,999,41809,.22762983E-3,.6021E-4,0
RANGE-A,2018-099R,2026-07-19T02:39:25.032960,15.13626060,.00089384,97.3947,241.7580,229.2799,130.7657,0,U,43773,999,41732,.11591856E-3,.202E-4,0
SNUSAT-2,2018-099AA,2026-07-19T02:04:48.877248,15.22274285,.00106648,97.4038,252.9867,174.6907,185.4444,0,U,43782,999,41788,.19785771E-3,.449E-4,0
SNUGLITE,2018-099AC,2026-07-19T02:40:35.574240,15.27808084,.00039725,97.3846,254.0880,149.5930,210.5541,0,U,43784,999,41819,.23085484E-3,.6196E-4,0
ITASAT,2018-099AE,2026-07-19T02:20:23.460000,15.19408070,.00111154,97.4008,250.9769,234.9585,125.0608,0,U,43786,999,41775,.16053572E-3,.3335E-4,0
EAGLET-I,2018-099AJ,2026-07-19T03:03:40.479840,15.13150475,.00098542,97.4211,248.9514,228.7919,131.2463,0,U,43790,999,41716,.10214585E-3,.1748E-4,0
ESEO,2018-099AL,2026-07-19T02:37:09.831648,15.04332492,.00111092,97.3963,236.1291,218.1510,141.8932,0,U,43792,999,41660,.83104905E-4,.1101E-4,0
THEA,2018-099AQ,2026-07-19T03:11:46.783104,15.36019936,.00083831,97.4421,270.1573,161.6445,198.5103,0,U,43796,999,41759,.30176295E-3,.10516E-3,0
ASTROCAST 0.1,2018-099AS,2026-07-19T06:27:18.630432,15.51643833,.00054043,97.4363,279.8167,118.0397,242.1403,0,U,43798,999,41940,.37089345E-3,.21974E-3,0
JY1SAT (JO-97),2018-099AX,2026-07-19T02:54:19.619424,15.34595342,.00071612,97.4105,263.0849,146.3661,213.8038,0,U,43803,999,41852,.28756169E-3,.9568E-4,0
SUOMI-100,2018-099AY,2026-07-19T03:32:50.555040,15.29085912,.00109161,97.4163,260.4344,159.3482,200.8202,0,U,43804,999,41830,.22614892E-3,.632E-4,0
CENTAURI-1,2018-099BD,2026-07-19T03:23:55.674240,15.16646071,.0013329,97.4199,251.1779,210.3790,149.6673,0,U,43809,999,41734,.13728047E-3,.2624E-4,0
GLOBAL-2,2018-099BG,2026-07-19T02:35:41.833248,15.08839207,.00071511,97.3547,235.2945,56.4637,303.7274,0,U,43812,999,41672,.11717276E-3,.1785E-4,0
SEAHAWK-1,2018-099BQ,2026-07-19T03:09:57.309984,15.23275045,.00082856,97.3935,252.1377,184.5088,175.6075,0,U,43820,999,41739,.18218624E-3,.4252E-4,0
SAUDISAT 5A,2018-102A,2026-07-19T07:33:07.391232,15.28344347,.00100468,97.3045,261.2796,30.4588,329.7233,0,U,43831,999,42058,.98201504E-4,.264E-4,0
SAUDISAT 5B,2018-102C,2026-07-19T07:52:43.804128,15.28586187,.00108238,97.3155,264.4210,31.7093,328.4797,0,U,43833,999,42070,.92836052E-4,.2511E-4,0
ISAT,2018-111D,2026-07-18T19:23:35.518272,15.71450890,.00082687,97.5852,137.6108,132.9607,227.2350,0,U,43879,999,41612,.63368937E-3,.81425E-3,0
UWE-4,2018-111E,2026-07-18T18:41:09.153024,15.47960214,.00066755,97.5834,129.6699,180.9155,179.2083,0,U,43880,999,41566,.35826827E-3,.18634E-3,0
D-STAR ONE (SPARROW),2018-111F,2026-07-18T19:06:15.890400,15.86443596,.00087682,97.6079,143.9206,136.3743,223.8222,0,U,43881,999,41636,.79802587E-3,.204153E-2,0
JILIN-1 09,2019-005B,2026-07-19T07:00:36.171648,15.20760020,.00019555,97.4743,294.9868,27.3380,332.7958,0,U,43943,999,41402,.1028275E-3,.2194E-4,0
JILIN-1 10,2019-005E,2026-07-19T06:13:52.749984,15.26032123,.00089699,97.4794,299.0727,156.6723,203.4924,0,U,43946,999,41420,.12161226E-3,.3058E-4,0
EGYPTSAT-A (MISRSAT-A),2019-008A,2026-07-19T06:55:42.089376,14.72339128,.00017534,98.0175,264.6179,93.1572,266.9836,0,U,44047,999,39796,.61463826E-4,.339E-5,0
EMISAT,2019-018A,2026-07-19T07:17:19.925376,14.43650296,.00195207,98.4626,258.9243,119.5630,240.7509,0,U,44078,999,38469,.22567153E-4,.33E-6,0
JILIN-1 GAOFEN 3A,2019-032C,2026-07-19T06:37:46.350624,15.33244228,.00049579,44.9737,180.2403,135.6447,224.4835,0,U,44312,999,39276,.21819282E-3,.684E-4,0
WT 1B,2019-032G,2026-07-19T05:51:54.139104,15.27767637,.00081347,44.9724,245.8762,61.5282,298.6420,0,U,44316,999,39198,.1762557E-3,.4578E-4,0
